NORAD_CAT_ID,OBJECT_NAME,OBJECT_TYPE,EPOCH,MEAN_MOTION,ECCENTRICITY,INCLINATION,RA_OF_ASC_NODE,ARG_OF_PERICENTER,MEAN_ANOMALY,BSTAR,MEAN_MOTION_DOT,MEAN_MOTION_DDOT,TLE_LINE0,TLE_LINE1,TLE_LINE2,SEMIMAJOR_AXIS,PERIOD,APOGEE,PERIGEE,DECAYED
53823.0,STARLINK-4748,PAYLOAD,2023-02-14 14:00:01,15.40427362,0.0001122,53.2152,244.8874,89.8947,62.5294,-0.020611,-0.00777486,0.0,0 STARLINK-4748,1 53823U 22114F   23045.58334491 -.00777486  00000-0 -20611-1 0  9994,2 53823  53.2152 244.8874 0001122  89.8947  62.5294 15.40427362 23949,6822.984,93.481,445.615,444.084,0.0
53823.0,STARLINK-4748,PAYLOAD,2023-02-14 20:00:01,15.3999838,0.0001118,53.2149,243.7115,75.293,24.1041,-0.020326,-0.00757569,0.0,0 STARLINK-4748,1 53823U 22114F   23045.83334491 -.00757569  00000-0 -20326-1 0  9995,2 53823  53.2149 243.7115 0001118  75.2930  24.1041 15.39998380  1308,6824.251,93.507,446.879,445.353,0.0
53823.0,STARLINK-4748,PAYLOAD,2023-02-17 22:00:00,15.34963666,0.0001141,53.2132,229.2495,80.1513,174.9513,-0.022581,-0.00717331,0.0,0 STARLINK-4748,1 53823U 22114F   23048.91667824 -.00717331  00000-0 -22581-1 0  9994,2 53823  53.2132 229.2495 0001141  80.1513 174.9513 15.34963666 24451,6839.165,93.813,461.811,460.25,0.0
53823.0,STARLINK-4748,PAYLOAD,2023-02-18 14:00:01,15.33926558,0.0001041,53.2131,226.1353,92.8083,246.9902,-0.026272,-0.00809981,0.0,0 STARLINK-4748,1 53823U 22114F   23049.58334491 -.00809981  00000-0 -26272-1 0  9993,2 53823  53.2131 226.1353 0001041  92.8083 246.9902 15.33926558 24551,6842.248,93.877,464.825,463.4,0.0
53823.0,STARLINK-4748,PAYLOAD,2023-02-19 08:00:01,15.32652205,0.0001154,53.2126,222.6389,86.8056,75.1927,-0.024071,-0.00710896,0.0,0 STARLINK-4748,1 53823U 22114F   23050.33334491 -.00710896  00000-0 -24071-1 0  9999,2 53823  53.2126 222.6389 0001154  86.8056  75.1927 15.32652205 24679,6846.04,93.955,468.695,467.115,0.0
53823.0,STARLINK-4748,PAYLOAD,2023-02-19 14:00:01,15.32299756,0.0001184,53.2129,221.4757,85.2907,16.6851,-0.027861,-0.00815376,0.0,0 STARLINK-4748,1 53823U 22114F   23050.58334491 -.00815376  00000-0 -27861-1 0  9995,2 53823  53.2129 221.4757 0001184  85.2907  16.6851 15.32299756  1308,6847.09,93.976,469.765,468.144,0.0
53823.0,STARLINK-4748,PAYLOAD,2023-02-20 02:00:01,15.31492774,0.0001073,53.2128,219.1507,79.5599,261.302,-0.029168,-0.00830948,0.0,0 STARLINK-4748,1 53823U 22114F   23051.08334491 -.00830948  00000-0 -29168-1 0  9995,2 53823  53.2128 219.1507 0001073  79.5599 261.3020 15.31492774 24782,6849.495,94.026,472.095,470.625,0.0
53823.0,STARLINK-4748,PAYLOAD,2023-02-20 14:00:01,15.30668375,0.0001288,53.2134,216.8276,88.1054,130.1807,-0.029122,-0.00810163,0.0,0 STARLINK-4748,1 53823U 22114F   23051.58334491 -.00810163  00000-0 -29122-1 0  9997,2 53823  53.2134 216.8276 0001288  88.1054 130.1807 15.30668375  1306,6851.954,94.077,474.701,472.936,0.0
53823.0,STARLINK-4748,PAYLOAD,2023-02-20 16:00:00,15.30513291,0.0001163,53.2133,216.4413,85.0876,232.6342,-0.028258,-0.00784282,0.0,0 STARLINK-4748,1 53823U 22114F   23051.66667824 -.00784282  00000-0 -28258-1 0  9996,2 53823  53.2133 216.4413 0001163  85.0876 232.6342 15.30513291 24879,6852.417,94.086,475.079,473.485,0.0
53823.0,STARLINK-4748,PAYLOAD,2023-02-21 14:00:01,15.29036246,0.0001237,53.2141,212.1911,86.1939,242.5362,-0.030447,-0.00805501,0.0,0 STARLINK-4748,1 53823U 22114F   23052.58334491 -.00805501  00000-0 -30447-1 0  9990,2 53823  53.2141 212.1911 0001237  86.1939 242.5362 15.29036246  1301,6856.829,94.177,479.542,477.846,0.0
53823.0,STARLINK-4748,PAYLOAD,2023-02-21 16:00:00,15.2888091,0.000126,53.214,211.8058,77.247,350.4289,-0.02944,-0.00777271,0.0,0 STARLINK-4748,1 53823U 22114F   23052.66667824 -.00777271  00000-0 -29440-1 0  9991,2 53823  53.2140 211.8058 0001260  77.2470 350.4289 15.28880910 25032,6857.293,94.187,480.022,478.294,0.0
53823.0,STARLINK-4748,PAYLOAD,2023-02-22 00:00:00,15.28370869,0.0001278,53.2141,210.2634,69.0107,33.9976,-0.031557,-0.00816994,0.0,0 STARLINK-4748,1 53823U 22114F   23053.00001157 -.00816994  00000-0 -31557-1 0  9999,2 53823  53.2141 210.2634 0001278  69.0107  33.9976 15.28370869  1308,6858.819,94.218,481.561,479.807,0.0
53823.0,STARLINK-4748,PAYLOAD,2023-02-22 14:00:01,15.27406714,0.00013,53.2148,207.5664,77.5851,355.7205,-0.03194,-0.00803832,0.0,0 STARLINK-4748,1 53823U 22114F   23053.58334491 -.00803832  00000-0 -31940-1 0  9995,2 53823  53.2148 207.5664 0001300  77.5851 355.7205 15.27406714  1301,6861.705,94.277,484.462,482.678,0.0
53823.0,STARLINK-4748,PAYLOAD,2023-02-22 22:00:00,15.26850884,0.0001369,53.2148,206.0283,66.0653,40.7931,-0.030672,-0.00762043,0.0,0 STARLINK-4748,1 53823U 22114F   23053.91667824 -.00762043  00000-0 -30672-1 0  9990,2 53823  53.2148 206.0283 0001369  66.0653  40.7931 15.26850884 25224,6863.37,94.312,486.175,484.296,0.0
53823.0,STARLINK-4748,PAYLOAD,2023-02-23 14:00:01,15.25772252,0.0001416,53.2155,202.9533,77.1182,94.8974,-0.033093,-0.0079325,0.0,0 STARLINK-4748,1 53823U 22114F   23054.58334491 -.00793250  00000-0 -33093-1 0  9999,2 53823  53.2155 202.9533 0001416  77.1182  94.8974 15.25772252  1309,6866.604,94.378,489.442,487.497,0.0
53823.0,STARLINK-4748,PAYLOAD,2023-02-23 16:00:00,15.25615912,0.0001377,53.2154,202.5698,76.7524,193.2298,-0.031689,-0.00758579,0.0,0 STARLINK-4748,1 53823U 22114F   23054.66667824 -.00758579  00000-0 -31689-1 0  9991,2 53823  53.2154 202.5698 0001377  76.7524 193.2298 15.25615912 25338,6867.074,94.388,489.884,487.993,0.0
53823.0,STARLINK-4748,PAYLOAD,2023-02-23 22:00:00,15.25228728,0.0001404,53.2154,201.419,74.4001,129.2085,-0.032743,-0.00773555,0.0,0 STARLINK-4748,1 53823U 22114F   23054.91667824 -.00773555  00000-0 -32743-1 0  9992,2 53823  53.2154 201.4190 0001404  74.4001 129.2085 15.25228728  1308,6868.236,94.412,491.065,489.136,0.0
53823.0,STARLINK-4748,PAYLOAD,2023-02-24 14:00:01,15.24139476,0.0001374,53.2159,198.3518,86.3602,178.4969,-0.034332,-0.00784113,0.0,0 STARLINK-4748,1 53823U 22114F   23055.58334491 -.00784113  00000-0 -34332-1 0  9995,2 53823  53.2159 198.3518 0001374  86.3602 178.4969 15.24139476  1303,6871.508,94.48,494.317,492.428,0.0
53823.0,STARLINK-4748,PAYLOAD,2023-02-24 18:00:00,15.2384056,0.0001367,53.216,197.5867,74.6326,25.1318,-0.031905,-0.00726303,0.0,0 STARLINK-4748,1 53823U 22114F   23055.75001157 -.00726303  00000-0 -31905-1 0  9994,2 53823  53.2160 197.5867 0001367  74.6326  25.1318 15.23840560 25504,6872.406,94.498,495.211,493.332,0.0
53823.0,STARLINK-4748,PAYLOAD,2023-02-24 22:00:00,15.23614043,0.0001255,53.2157,196.821,78.5381,215.9511,-0.035417,-0.00795361,0.0,0 STARLINK-4748,1 53823U 22114F   23055.91667824 -.00795361  00000-0 -35417-1 0  9993,2 53823  53.2157 196.8210 0001255  78.5381 215.9511 15.23614043  1305,6873.087,94.512,495.815,494.09,0.0
53823.0,STARLINK-4748,PAYLOAD,2023-02-25 08:00:01,15.22907497,0.0001322,53.2161,194.9067,83.2194,337.4159,-0.033785,-0.00746478,0.0,0 STARLINK-4748,1 53823U 22114F   23056.33334491 -.00746478  00000-0 -33785-1 0  9992,2 53823  53.2161 194.9067 0001322  83.2194 337.4159 15.22907497 25591,6875.213,94.556,497.987,496.169,0.0
53823.0,STARLINK-4748,PAYLOAD,2023-02-25 14:00:01,15.22511339,0.0001326,53.2162,193.7616,80.6556,271.1744,-0.035986,-0.00782968,0.0,0 STARLINK-4748,1 53823U 22114F   23056.58334491 -.00782968  00000-0 -35986-1 0  9998,2 53823  53.2162 193.7616 0001326  80.6556 271.1744 15.22511339  1309,6876.406,94.581,499.182,497.359,0.0
53823.0,STARLINK-4748,PAYLOAD,2023-02-25 22:00:00,15.21990104,0.0001267,53.216,192.2346,69.5646,309.9416,-0.037565,-0.00803163,0.0,0 STARLINK-4748,1 53823U 22114F   23056.91667824 -.00803163  00000-0 -37565-1 0  9990,2 53823  53.2160 192.2346 0001267  69.5646 309.9416 15.21990104 25673,6877.975,94.613,500.712,498.969,0.0
53823.0,STARLINK-4748,PAYLOAD,2023-02-26 14:00:01,15.20880467,0.0001375,53.2164,189.183,75.1418,357.7957,-0.037539,-0.00778636,0.0,0 STARLINK-4748,1 53823U 22114F   23057.58334491 -.00778636  00000-0 -37539-1 0  9992,2 53823  53.2164 189.1830 0001375  75.1418 357.7957 15.20880467 25782,6881.321,94.682,504.132,502.239,0.0
53823.0,STARLINK-4748,PAYLOAD,2023-02-27 00:00:00,15.20228556,0.000126,53.2165,187.2782,75.1714,119.8201,-0.040553,-0.00821655,0.0,0 STARLINK-4748,1 53823U 22114F   23058.00001157 -.00821655  00000-0 -40553-1 0  9990,2 53823  53.2165 187.2782 0001260  75.1714 119.8201 15.20228556  1306,6883.288,94.723,506.02,504.285,0.0
53823.0,STARLINK-4748,PAYLOAD,2023-02-27 14:00:01,15.1924439,0.0001425,53.2167,184.6156,81.3752,66.8044,-0.038624,-0.00764711,0.0,0 STARLINK-4748,1 53823U 22114F   23058.58334491 -.00764711  00000-0 -38624-1 0  9998,2 53823  53.2167 184.6156 0001425  81.3752  66.8044 15.19244390  1306,6886.26,94.784,509.106,507.144,0.0
53823.0,STARLINK-4748,PAYLOAD,2023-02-27 22:00:01,15.1874319,0.0001406,53.2167,183.0958,77.3154,94.6865,-0.04228,-0.00820397,0.0,0 STARLINK-4748,1 53823U 22114F   23058.91668981 -.00820397  00000-0 -42280-1 0  9995,2 53823  53.2167 183.0958 0001406  77.3154  94.6865 15.18743190 25980,6887.775,94.815,510.608,508.671,0.0
53823.0,STARLINK-4748,PAYLOAD,2023-02-28 14:00:01,15.17615005,0.0001468,53.2171,180.0598,81.2359,136.3147,-0.040186,-0.00759303,0.0,0 STARLINK-4748,1 53823U 22114F   23059.58334491 -.00759303  00000-0 -40186-1 0  9996,2 53823  53.2171 180.0598 0001468  81.2359 136.3147 15.17615005  1300,6891.188,94.886,514.065,512.041,0.0
53823.0,STARLINK-4748,PAYLOAD,2023-02-28 18:00:00,15.17328205,0.0001308,53.2172,179.3022,72.8069,335.7354,-0.038072,-0.00716468,0.0,0 STARLINK-4748,1 53823U 22114F   23059.75001157 -.00716468  00000-0 -38072-1 0  9991,2 53823  53.2172 179.3022 0001308  72.8069 335.7354 15.17328205 26115,6892.056,94.904,514.823,513.02,0.0
53823.0,STARLINK-4748,PAYLOAD,2023-02-28 22:00:00,15.17120174,0.0001349,53.2171,178.5436,78.4663,160.8875,-0.044888,-0.00839907,0.0,0 STARLINK-4748,1 53823U 22114F   23059.91667824 -.00839907  00000-0 -44888-1 0  9994,2 53823  53.2171 178.5436 0001349  78.4663 160.8875 15.17120174  1305,6892.686,94.917,515.481,513.622,0.0
